{"type": "FeatureCollection", "features": [ {"type": "Feature", "properties": {"norad_id": 40664, "name": "SKY MEXICO-1", "group": "intelsat", "lat": 0.02926941031528255, "lon": 82.0308836749443, "alt_km": 35797.986822645755, "timestamp": "2025-12-07T05:38:09.575957+00:00", "meta": {"OBJECT_NAME": "SKY MEXICO-1", "OBJECT_ID": "2015-026B", "EPOCH": "2025-12-06T11:07:07.278816", "MEAN_MOTION": 1.00271024, "ECCENTRICITY": 0.00027693, "INCLINATION": 0.0128, "RA_OF_ASC_NODE": 27.0502, "ARG_OF_PERICENTER": 242.5466, "MEAN_ANOMALY": 253.921, "EPHEMERIS_TYPE": 0, "CLASSIFICATION_TYPE": "U", "NORAD_CAT_ID": 40664, "ELEMENT_SET_NO": 999, "REV_AT_EPOCH": 3852, "BSTAR": 0, "MEAN_MOTION_DOT": -2.27e-06, "MEAN_MOTION_DDOT": 0}, "tle": {"line1": "1 40664U 15026B   25340.46327869 -.00000227  00000+0  00000+0 0  9993", "line2": "2 40664   0.0128  27.0502 0002769 242.5466 253.9210  1.00271024 38529"}}, "geometry": {"type": "Point", "coordinates": [82.0308836749443, 0.02926941031528255]}}, {"type": "Feature", "properties": {"norad_id": 40874, "name": "INTELSAT 34 (IS-34)", "group": "intelsat", "lat": 0.019036545926265885, "lon": 105.29041198186971, "alt_km": 35785.71898496603, "timestamp": "2025-12-07T05:38:09.575969+00:00", "meta": {"OBJECT_NAME": "INTELSAT 34 (IS-34)", "OBJECT_ID": "2015-039A", "EPOCH": "2025-12-06T09:58:40.768896", "MEAN_MOTION": 1.00272262, "ECCENTRICITY": 6.743e-05, "INCLINATION": 0.0113, "RA_OF_ASC_NODE": 309.7424, "ARG_OF_PERICENTER": 238.8408, "MEAN_ANOMALY": 341.0453, "EPHEMERIS_TYPE": 0, "CLASSIFICATION_TYPE": "U", "NORAD_CAT_ID": 40874, "ELEMENT_SET_NO": 999, "REV_AT_EPOCH": 3769, "BSTAR": 0, "MEAN_MOTION_DOT": -2.78e-06, "MEAN_MOTION_DDOT": 0}, "tle": {"line1": "1 40874U 15039A   25340.41574964 -.00000278  00000+0  00000+0 0  9991", "line2": "2 40874   0.0113 309.7424 0000674 238.8408 341.0453  1.00272262 37696"}}, "geometry": {"type": "Point", "coordinates": [105.29041198186971, 0.019036545926265885]}}, {"type": "Feature", "properties": {"norad_id": 41581, "name": "INTELSAT 31 (IS-31)", "group": "intelsat", "lat": 0.023484284891061316, "lon": 65.68422407667477, "alt_km": 35796.392409623004, "timestamp": "2025-12-07T05:38:09.575981+00:00", "meta": {"OBJECT_NAME": "INTELSAT 31 (IS-31)", "OBJECT_ID": "2016-035A", "EPOCH": "2025-12-06T10:58:11.822592", "MEAN_MOTION": 1.00259048, "ECCENTRICITY": 0.00021722, "INCLINATION": 0.0205, "RA_OF_ASC_NODE": 270.4524, "ARG_OF_PERICENTER": 292.1707, "MEAN_ANOMALY": 302.3653, "EPHEMERIS_TYPE": 0, "CLASSIFICATION_TYPE": "U", "NORAD_CAT_ID": 41581, "ELEMENT_SET_NO": 999, "REV_AT_EPOCH": 3475, "BSTAR": 0, "MEAN_MOTION_DOT": -1.42e-06, "MEAN_MOTION_DDOT": 0}, "tle": {"line1": "1 41581U 16035A   25340.45708128 -.00000142  00000+0  00000+0 0  9999", "line2": "2 41581   0.0205 270.4524 0002172 292.1707 302.3653  1.00259048 34752"}}, "geometry": {"type": "Point", "coordinates": [65.68422407667477, 0.023484284891061316]}}, {"type": "Feature", "properties": {"norad_id": 41747, "name": "INTELSAT 36 (IS-36)", "group": "intelsat", "lat": -0.029954056997859746, "lon": -130.7279344482913, "alt_km": 35786.09501520016, "timestamp": "2025-12-07T05:38:09.575993+00:00", "meta": {"OBJECT_NAME": "INTELSAT 36 (IS-36)", "OBJECT_ID": "2016-053A", "EPOCH": "2025-12-06T10:33:59.887008", "MEAN_MOTION": 1.00270069, "ECCENTRICITY": 0.00015206, "INCLINATION": 0.0114, "RA_OF_ASC_NODE": 358.7384, "ARG_OF_PERICENTER": 316.7777, "MEAN_ANOMALY": 346.9633, "EPHEMERIS_TYPE": 0, "CLASSIFICATION_TYPE": "U", "NORAD_CAT_ID": 41747, "ELEMENT_SET_NO": 999, "REV_AT_EPOCH": 3401, "BSTAR": 0, "MEAN_MOTION_DOT": -1.7e-07, "MEAN_MOTION_DDOT": 0}, "tle": {"line1": "1 41747U 16053A   25340.44027647 -.00000017  00000+0  00000+0 0  9993", "line2": "2 41747   0.0114 358.7384 0001520 316.7777 346.9633  1.00270069 34012"}}, "geometry": {"type": "Point", "coordinates": [-130.7279344482913, -0.029954056997859746]}}, {"type": "Feature", "properties": {"norad_id": 41945, "name": "INTELSAT 32E (IS-32E)", "group": "intelsat", "lat": 0.03181441237526757, "lon": 117.60900345109202, "alt_km": 35787.35708535947, "timestamp": "2025-12-07T05:38:09.576005+00:00", "meta": {"OBJECT_NAME": "INTELSAT 32E (IS-32E)", "OBJECT_ID": "2017-007B", "EPOCH": "2025-12-06T11:44:53.098080", "MEAN_MOTION": 1.0026955, "ECCENTRICITY": 1.485e-05, "INCLINATION": 0.0305, "RA_OF_ASC_NODE": 68.4783, "ARG_OF_PERICENTER": 205.7455, "MEAN_ANOMALY": 294.3476, "EPHEMERIS_TYPE": 0, "CLASSIFICATION_TYPE": "U", "NORAD_CAT_ID": 41945, "ELEMENT_SET_NO": 999, "REV_AT_EPOCH": 3229, "BSTAR": 0, "MEAN_MOTION_DOT": -2.62e-06, "MEAN_MOTION_DDOT": 0}, "tle": {"line1": "1 41945U 17007B   25340.48950345 -.00000262  00000+0  00000+0 0  9999", "line2": "2 41945   0.0305  68.4783 0000148 205.7455 294.3476  1.00269550 32299"}}, "geometry": {"type": "Point", "coordinates": [117.60900345109202, 0.03181441237526757]}}, {"type": "Feature", "properties": {"norad_id": 42818, "name": "INTELSAT 35E (IS-35E)", "group": "intelsat", "lat": 0.025309456191342363, "lon": 126.28486750358086, "alt_km": 35793.67580462493, "timestamp": "2025-12-07T05:38:09.576017+00:00", "meta": {"OBJECT_NAME": "INTELSAT 35E (IS-35E)", "OBJECT_ID": "2017-041A", "EPOCH": "2025-12-06T10:04:40.196352", "MEAN_MOTION": 1.00270131, "ECCENTRICITY": 0.00024143, "INCLINATION": 0.0158, "RA_OF_ASC_NODE": 350.803, "ARG_OF_PERICENTER": 269.1644, "MEAN_ANOMALY": 292.1759, "EPHEMERIS_TYPE": 0, "CLASSIFICATION_TYPE": "U", "NORAD_CAT_ID": 42818, "ELEMENT_SET_NO": 999, "REV_AT_EPOCH": 3088, "BSTAR": 0, "MEAN_MOTION_DOT": -2.31e-06, "MEAN_MOTION_DDOT": 0}, "tle": {"line1": "1 42818U 17041A   25340.41990968 -.00000231  00000+0  00000+0 0  9991", "line2": "2 42818   0.0158 350.8030 0002414 269.1644 292.1759  1.00270131 30880"}}, "geometry": {"type": "Point", "coordinates": [126.28486750358086, 0.025309456191342363]}}, {"type": "Feature", "properties": {"norad_id": 42950, "name": "INTELSAT 37E (IS-37E)", "group": "intelsat", "lat": 0.00989116630554427, "lon": 142.75716996082312, "alt_km": 35791.329666352656, "timestamp": "2025-12-07T05:38:09.576029+00:00", "meta": {"OBJECT_NAME": "INTELSAT 37E (IS-37E)", "OBJECT_ID": "2017-059A", "EPOCH": "2025-12-06T10:09:17.254368", "MEAN_MOTION": 1.00270742, "ECCENTRICITY": 0.00034807, "INCLINATION": 0.0169, "RA_OF_ASC_NODE": 336.2223, "ARG_OF_PERICENTER": 276.0192, "MEAN_ANOMALY": 317.5473, "EPHEMERIS_TYPE": 0, "CLASSIFICATION_TYPE": "U", "NORAD_CAT_ID": 42950, "ELEMENT_SET_NO": 999, "REV_AT_EPOCH": 3013, "BSTAR": 0, "MEAN_MOTION_DOT": -1.33e-06, "MEAN_MOTION_DDOT": 0}, "tle": {"line1": "1 42950U 17059A   25340.42311637 -.00000133  00000+0  00000+0 0  9999", "line2": "2 42950   0.0169 336.2223 0003480 276.0192 317.5473  1.00270742 30131"}}, "geometry": {"type": "Point", "coordinates": [142.75716996082312, 0.00989116630554427]}}, {"type": "Feature", "properties": {"norad_id": 43632, "name": "AZERSPACE 2 (IS-38)", "group": "intelsat", "lat": -0.016798692355364166, "lon": -154.1106833379185, "alt_km": 35782.123349168534, "timestamp": "2025-12-07T05:38:09.576041+00:00", "meta": {"OBJECT_NAME": "AZERSPACE 2 (IS-38)", "OBJECT_ID": "2018-074A", "EPOCH": "2025-12-06T05:46:38.731584", "MEAN_MOTION": 1.0027024, "ECCENTRICITY": 0.00016364, "INCLINATION": 0.0015, "RA_OF_ASC_NODE": 351.9319, "ARG_OF_PERICENTER": 265.925, "MEAN_ANOMALY": 309.2023, "EPHEMERIS_TYPE": 0, "CLASSIFICATION_TYPE": "U", "NORAD_CAT_ID": 43632, "ELEMENT_SET_NO": 999, "REV_AT_EPOCH": 2651, "BSTAR": 0, "MEAN_MOTION_DOT": 1.45e-06, "MEAN_MOTION_DDOT": 0}, "tle": {"line1": "1 43632U 18074A   25340.24072606  .00000145  00000+0  00000+0 0  9997", "line2": "2 43632   0.0015 351.9319 0001636 265.9250 309.2023  1.00270240 26511"}}, "geometry": {"type": "Point", "coordinates": [-154.1106833379185, -0.016798692355364166]}}, {"type": "Feature", "properties": {"norad_id": 43633, "name": "HORIZONS-3E", "group": "intelsat", "lat": 0.012507282420183962, "lon": -30.180632819594337, "alt_km": 35783.474516229595, "timestamp": "2025-12-07T05:38:09.576052+00:00", "meta": {"OBJECT_NAME": "HORIZONS-3E", "OBJECT_ID": "2018-074B", "EPOCH": "2025-12-06T04:02:38.488128", "MEAN_MOTION": 1.00269385, "ECCENTRICITY": 0.00012044, "INCLINATION": 0.0412, "RA_OF_ASC_NODE": 188.1076, "ARG_OF_PERICENTER": 91.4759, "MEAN_ANOMALY": 25.3122, "EPHEMERIS_TYPE": 0, "CLASSIFICATION_TYPE": "U", "NORAD_CAT_ID": 43633, "ELEMENT_SET_NO": 999, "REV_AT_EPOCH": 2640, "BSTAR": 0, "MEAN_MOTION_DOT": -2.2e-07, "MEAN_MOTION_DDOT": 0}, "tle": {"line1": "1 43633U 18074B   25340.16850102 -.00000022  00000+0  00000+0 0  9999", "line2": "2 43633   0.0412 188.1076 0001204  91.4759  25.3122  1.00269385 26402"}}, "geometry": {"type": "Point", "coordinates": [-30.180632819594337, 0.012507282420183962]}}, {"type": "Feature", "properties": {"norad_id": 44333, "name": "AT&T T-16", "group": "intelsat", "lat": 0.016731124990339165, "lon": 59.92550872177679, "alt_km": 35787.27382340345, "timestamp": "2025-12-07T05:38:09.576064+00:00", "meta": {"OBJECT_NAME": "AT&T T-16", "OBJECT_ID": "2019-034A", "EPOCH": "2025-12-05T21:46:40.325088", "MEAN_MOTION": 1.00271318, "ECCENTRICITY": 6.937e-05, "INCLINATION": 0.0289, "RA_OF_ASC_NODE": 66.1436, "ARG_OF_PERICENTER": 104.688, "MEAN_ANOMALY": 129.9319, "EPHEMERIS_TYPE": 0, "CLASSIFICATION_TYPE": "U", "NORAD_CAT_ID": 44333, "ELEMENT_SET_NO": 999, "REV_AT_EPOCH": 2369, "BSTAR": 0, "MEAN_MOTION_DOT": -1.06e-06, "MEAN_MOTION_DDOT": 0}, "tle": {"line1": "1 44333U 19034A   25339.90741117 -.00000106  00000+0  00000+0 0  9992", "line2": "2 44333   0.0289  66.1436 0000693 104.6880 129.9319  1.00271318 23696"}}, "geometry": {"type": "Point", "coordinates": [59.92550872177679, 0.016731124990339165]}}]}